{
  "type": "FeatureCollection",
  "features": [
    {
      "type": "Feature",
      "properties": {
        "norad_id": 42988,
        "name": "SKYSAT-C10",
        "group": "resource",
        "lat": -58.37342887343595,
        "lon": -80.69316814336565,
        "alt_km": 479.0866236966767,
        "timestamp": "2025-12-06T16:45:42.384342+00:00",
        "meta_object_name": "SKYSAT-C10",
        "meta_object_id": "2017-068B",
        "meta_epoch": "2025-12-06T03:10:46.655616",
        "meta_mean_motion": 15.31848276,
        "meta_eccentricity": 0.00052009,
        "meta_inclination": 97.4258,
        "meta_ra_of_asc_node": 110.9667,
        "meta_arg_of_pericenter": 122.6613,
        "meta_mean_anomaly": 237.5131,
        "meta_ephemeris_type": 0,
        "meta_classification_type": "U",
        "meta_norad_cat_id": 42988,
        "meta_element_set_no": 999,
        "meta_rev_at_epoch": 45278,
        "meta_bstar": 0.00055398039,
        "meta_mean_motion_dot": 0.00016982,
        "meta_mean_motion_ddot": 0,
        "tle_line1": "1 42988U 17068B   25340.13248444  .00016982  00000+0  55398-3 0  9995",
        "tle_line2": "2 42988  97.4258 110.9667 0005200 122.6613 237.5131 15.31848276452789"
      },
      "geometry": {
        "type": "Point",
        "coordinates": [
          -80.69316814336565,
          -58.37342887343595
        ]
      }
    },
    {
      "type": "Feature",
      "properties": {
        "norad_id": 42989,
        "name": "SKYSAT-C9",
        "group": "resource",
        "lat": 0.172748554032309,
        "lon": 110.8838249836045,
        "alt_km": 463.68699989500055,
        "timestamp": "2025-12-06T16:45:42.384352+00:00",
        "meta_object_name": "SKYSAT-C9",
        "meta_object_id": "2017-068C",
        "meta_epoch": "2025-12-06T07:22:43.611744",
        "meta_mean_motion": 15.35801828,
        "meta_eccentricity": 0.00106662,
        "meta_inclination": 97.4192,
        "meta_ra_of_asc_node": 110.5125,
        "meta_arg_of_pericenter": 108.5669,
        "meta_mean_anomaly": 251.6735,
        "meta_ephemeris_type": 0,
        "meta_classification_type": "U",
        "meta_norad_cat_id": 42989,
        "meta_element_set_no": 999,
        "meta_rev_at_epoch": 45309,
        "meta_bstar": 0.00064299686,
        "meta_mean_motion_dot": 0.00022394,
        "meta_mean_motion_ddot": 0,
        "tle_line1": "1 42989U 17068C   25340.30744921  .00022394  00000+0  64300-3 0  9993",
        "tle_line2": "2 42989  97.4192 110.5125 0010666 108.5669 251.6735 15.35801828453096"
      },
      "geometry": {
        "type": "Point",
        "coordinates": [
          110.8838249836045,
          0.172748554032309
        ]
      }
    },
    {
      "type": "Feature",
      "properties": {
        "norad_id": 42990,
        "name": "SKYSAT-C8",
        "group": "resource",
        "lat": 38.40564015215138,
        "lon": 104.73692661245838,
        "alt_km": 463.6967946789937,
        "timestamp": "2025-12-06T16:45:42.384362+00:00",
        "meta_object_name": "SKYSAT-C8",
        "meta_object_id": "2017-068D",
        "meta_epoch": "2025-12-06T07:11:31.183872",
        "meta_mean_motion": 15.32708401,
        "meta_eccentricity": 0.00020241,
        "meta_inclination": 97.4285,
        "meta_ra_of_asc_node": 110.2736,
        "meta_arg_of_pericenter": 11.4682,
        "meta_mean_anomaly": 348.6605,
        "meta_ephemeris_type": 0,
        "meta_classification_type": "U",
        "meta_norad_cat_id": 42990,
        "meta_element_set_no": 999,
        "meta_rev_at_epoch": 45272,
        "meta_bstar": 0.00059764684,
        "meta_mean_motion_dot": 0.00018825,
        "meta_mean_motion_ddot": 0,
        "tle_line1": "1 42990U 17068D   25340.29966648  .00018825  00000+0  59765-3 0  9998",
        "tle_line2": "2 42990  97.4285 110.2736 0002024  11.4682 348.6605 15.32708401452724"
      },
      "geometry": {
        "type": "Point",
        "coordinates": [
          104.73692661245838,
          38.40564015215138
        ]
      }
    },
    {
      "type": "Feature",
      "properties": {
        "norad_id": 42991,
        "name": "SKYSAT-C7",
        "group": "resource",
        "lat": -82.04646150906588,
        "lon": -137.33713639896104,
        "alt_km": 482.0943632167173,
        "timestamp": "2025-12-06T16:45:42.384372+00:00",
        "meta_object_name": "SKYSAT-C7",
        "meta_object_id": "2017-068E",
        "meta_epoch": "2025-12-06T07:45:43.457760",
        "meta_mean_motion": 15.32117025,
        "meta_eccentricity": 0.00078539,
        "meta_inclination": 97.429,
        "meta_ra_of_asc_node": 111.3437,
        "meta_arg_of_pericenter": 76.993,
        "meta_mean_anomaly": 283.2188,
        "meta_ephemeris_type": 0,
        "meta_classification_type": "U",
        "meta_norad_cat_id": 42991,
        "meta_element_set_no": 999,
        "meta_rev_at_epoch": 45279,
        "meta_bstar": 0.00062036879,
        "meta_mean_motion_dot": 0.00019203,
        "meta_mean_motion_ddot": 0,
        "tle_line1": "1 42991U 17068E   25340.32341965  .00019203  00000+0  62037-3 0  9999",
        "tle_line2": "2 42991  97.4290 111.3437 0007853  76.9930 283.2188 15.32117025452791"
      },
      "geometry": {
        "type": "Point",
        "coordinates": [
          -137.33713639896104,
          -82.04646150906588
        ]
      }
    },
    {
      "type": "Feature",
      "properties": {
        "norad_id": 42992,
        "name": "SKYSAT-C6",
        "group": "resource",
        "lat": 41.60470773123071,
        "lon": 105.50629806493693,
        "alt_km": 466.7199714094686,
        "timestamp": "2025-12-06T16:45:42.384382+00:00",
        "meta_object_name": "SKYSAT-C6",
        "meta_object_id": "2017-068F",
        "meta_epoch": "2025-12-06T04:01:56.356032",
        "meta_mean_motion": 15.31283094,
        "meta_eccentricity": 0.00051708,
        "meta_inclination": 97.4325,
        "meta_ra_of_asc_node": 111.6316,
        "meta_arg_of_pericenter": 100.9613,
        "meta_mean_anomaly": 259.221,
        "meta_ephemeris_type": 0,
        "meta_classification_type": "U",
        "meta_norad_cat_id": 42992,
        "meta_element_set_no": 999,
        "meta_rev_at_epoch": 45275,
        "meta_bstar": 0.00055327304,
        "meta_mean_motion_dot": 0.00016664,
        "meta_mean_motion_ddot": 0,
        "tle_line1": "1 42992U 17068F   25340.16801338  .00016664  00000+0  55327-3 0  9999",
        "tle_line2": "2 42992  97.4325 111.6316 0005170 100.9613 259.2210 15.31283094452750"
      },
      "geometry": {
        "type": "Point",
        "coordinates": [
          105.50629806493693,
          41.60470773123071
        ]
      }
    },
    {
      "type": "Feature",
      "properties": {
        "norad_id": 43111,
        "name": "CARTOSAT-2F",
        "group": "resource",
        "lat": 52.0368305449148,
        "lon": 28.80211897393917,
        "alt_km": 503.44637450844766,
        "timestamp": "2025-12-06T16:45:42.384392+00:00",
        "meta_object_name": "CARTOSAT-2F",
        "meta_object_id": "2018-004A",
        "meta_epoch": "2025-12-06T07:02:45.286080",
        "meta_mean_motion": 15.19178411,
        "meta_eccentricity": 5.994e-05,
        "meta_inclination": 97.4326,
        "meta_ra_of_asc_node": 38.0355,
        "meta_arg_of_pericenter": 135.8128,
        "meta_mean_anomaly": 224.3154,
        "meta_ephemeris_type": 0,
        "meta_classification_type": "U",
        "meta_norad_cat_id": 43111,
        "meta_element_set_no": 999,
        "meta_rev_at_epoch": 43804,
        "meta_bstar": 0.00042176404,
        "meta_mean_motion_dot": 8.807e-05,
        "meta_mean_motion_ddot": 0,
        "tle_line1": "1 43111U 18004A   25340.29357970  .00008807  00000+0  42176-3 0  9994",
        "tle_line2": "2 43111  97.4326  38.0355 0000599 135.8128 224.3154 15.19178411438046"
      },
      "geometry": {
        "type": "Point",
        "coordinates": [
          28.80211897393917,
          52.0368305449148
        ]
      }
    },
    {
      "type": "Feature",
      "properties": {
        "norad_id": 43259,
        "name": "GAOFEN-1 02",
        "group": "resource",
        "lat": 27.185127294448517,
        "lon": 34.300586794462646,
        "alt_km": 640.2795214152911,
        "timestamp": "2025-12-06T16:45:42.384402+00:00",
        "meta_object_name": "GAOFEN-1 02",
        "meta_object_id": "2018-031A",
        "meta_epoch": "2025-12-06T06:52:43.422816",
        "meta_mean_motion": 14.76460442,
        "meta_eccentricity": 0.00013692,
        "meta_inclination": 98.0814,
        "meta_ra_of_asc_node": 38.0735,
        "meta_arg_of_pericenter": 239.6053,
        "meta_mean_anomaly": 120.5021,
        "meta_ephemeris_type": 0,
        "meta_classification_type": "U",
        "meta_norad_cat_id": 43259,
        "meta_element_set_no": 999,
        "meta_rev_at_epoch": 41423,
        "meta_bstar": 0.00031270784,
        "meta_mean_motion_dot": 2.124e-05,
        "meta_mean_motion_ddot": 0,
        "tle_line1": "1 43259U 18031A   25340.28661369  .00002124  00000+0  31271-3 0  9996",
        "tle_line2": "2 43259  98.0814  38.0735 0001369 239.6053 120.5021 14.76460442414231"
      },
      "geometry": {
        "type": "Point",
        "coordinates": [
          34.300586794462646,
          27.185127294448517
        ]
      }
    }
  ]
}